CUBEBUG-2 (LO-74)       
1 39440U 13066AA  26169.60385934  .00004033  00000+0  37369-3 0  9998
2 39440  97.8910 118.5878 0058306  24.5043 335.8927 14.93772226677206
FUNCUBE-1 (AO-73)       
1 39444U 13066AE  26169.64748372  .00004840  00000+0  30180-3 0  9995
2 39444  97.8281 141.1237 0035755 195.6832 164.3291 15.09504260679885
UWE-3                   
1 39446U 13066AG  26169.61929382  .00003597  00000+0  31072-3 0  9995
2 39446  97.8699 125.7026 0047372 316.3669  43.3811 14.97034048677792
UNISAT-6                
1 40012U 14033C   26169.41074502  .00001947  00000+0  21275-3 0  9995
2 40012  97.7883 322.1006 0046200  65.3888 295.2132 14.88251057646343
DUCHIFAT-1              
1 40021U 14033M   26169.68438844  .00088318  00000+0  89916-3 0  9990
2 40021  98.0447 229.0553 0002814 113.8680 246.2872 15.64848252655988
QB50P1                  
1 40025U 14033R   26169.60000341  .00006188  00000+0  30544-3 0  9991
2 40025  98.0962 180.8450 0007983 209.9659 150.1117 15.18277268653243
LILACSAT-2              
1 40908U 15049K   26169.69120572  .00013540  00000+0  23071-3 0  9994
2 40908  97.4639 206.5902 0005618 237.7727 122.2981 15.51485488595980
FOX-1A (AO-85)          
1 40967U 15058D   26169.69405078  .00001823  00000+0  17186-3 0  9997
2 40967  64.7758 274.3012 0130534  56.0068 305.3365 14.90975407113797
CAS-2T & KS-1Q          
1 41847U 16066G   26169.69509936  .00001369  00000+0  19891-3 0  9993
2 41847  98.3822 245.4143 0342835 124.9191 238.4724 14.44698848505010
RADFXSAT (FOX-1B)       
1 43017U 17073E   26168.60486874  .00005679  00000+0  24962-3 0  9991
2 43017  97.4696  35.8108 0149538 327.7970  31.4193 15.12722439465459
DIWATA-2B               
1 43678U 18084H   26169.77037933  .00002138  00000+0  17483-3 0  9991
2 43678  98.1179   6.0469 0012612 164.9756 195.1844 15.00458892416454
ES'HAIL 2               
1 43700U 18090A   26169.61480912  .00000138  00000+0  00000+0 0  9997
2 43700   0.0161  25.7861 0001693  98.4138  29.7600  1.00271454 27697
FOX-1CLIFF (AO-95)      
1 43770U 18099N   26169.12635746  .00009390  00000+0  35966-3 0  9998
2 43770  97.4378 229.3690 0007874 354.3313   5.7835 15.26728638413363
ITASAT                  
1 43786U 18099AE  26169.40498556  .00005196  00000+0  25058-3 0  9993
2 43786  97.4024 220.8924 0011961 356.0419   4.0719 15.19069917413095
JY1SAT (JO-97)          
1 43803U 18099AX  26169.13967896  .00014196  00000+0  43794-3 0  9998
2 43803  97.4123 231.9773 0004389 257.5077 102.5675 15.33679040413771
UWE-4                   
1 43880U 18111E   26169.25062241  .00024613  00000+0  50223-3 0  9991
2 43880  97.5854  97.6902 0005301 337.5186  22.5830 15.46181512410940
TIANYAN 01              
1 44881U 19093C   26169.72756662  .00000028  00000+0  92060-5 0  9993
2 44881  97.7533 241.9221 0015079  82.1067 278.1860 14.86519584351640
RS-44 & BREEZE-KM R/B   
1 44909U 19096E   26169.72518458  .00000008  00000+0 -19365-4 0  9991
2 44909  82.5220 338.6827 0218230 140.5822 221.1390 12.79748853302548
SALSAT                  
1 46495U 20068K   26169.45370448  .00006100  00000+0  21401-3 0  9990
2 46495  97.8850 172.5954 0007987 302.8690  57.1780 15.29814902315557
XW-3 (CAS-9)            
1 50466U 21131B   26169.72067095  .00000457  00000+0  15484-3 0  9999
2 50466  98.4988 262.1020 0005404  93.3186 266.8621 14.41359091235339
GREENCUBE (IO-117)      
1 53109U 22080E   26169.42938941 -.00000003  00000+0  00000+0 0  9996
2 53109  70.1442 297.8130 0008904 289.4279  70.5418  6.42583246 92141
UMKA 1 (RS40S)          
1 57172U 23091G   26169.67301837  .00004682  00000+0  21483-3 0  9996
2 57172  97.5047 228.3646 0014277 113.0288 247.2454 15.20832458164233
CUBESX-HSE 3 (RS42S)    
1 57178U 23091N   26169.67687073  .00010211  00000+0  34013-3 0  9999
2 57178  97.5088 235.2829 0012009  90.2977 269.9640 15.31245573164658
MONITOR-3 (RS58S)       
1 57180U 23091Q   26169.63915600  .00008530  00000+0  31551-3 0  9993
2 57180  97.5078 233.0958 0013084  96.3442 263.9288 15.27866274164516
MONITOR-4 (RS57S)       
1 57182U 23091S   26169.61813197  .00008511  00000+0  31403-3 0  9996
2 57182  97.5073 233.0461 0013076  96.8342 263.4385 15.27951714164514
MONITOR-2 (RS39S)       
1 57184U 23091U   26169.63025922  .00004094  00000+0  19902-3 0  9993
2 57184  97.5069 227.9039 0012757 106.7706 253.4928 15.18922029164175
SVYATOBOR 1 (RS60S)     
1 57187U 23091X   26169.63245375  .00006846  00000+0  26365-3 0  9990
2 57187  97.5085 233.4574 0010859  90.2761 269.9721 15.26635838164532
VIZARD-METEO (RS38S)    
1 57189U 23091Z   26169.64593753  .00012904  00000+0  36917-3 0  9995
2 57189  97.5088 239.1603 0008175  73.4324 286.7817 15.36064676164911
POLYTECH-UNIVERSE 3 (R*)
1 57191U 23091AB  26169.65726946  .00004161  00000+0  20075-3 0  9995
2 57191  97.5044 227.4353 0016933 122.1173 238.1707 15.19124722164170
UTMN 2 (RS27S)          
1 57203U 23091AP  26169.69364370  .00010174  00000+0  33052-3 0  9992
2 57203  97.5084 236.9357 0009177  79.2625 280.9649 15.32082736164772
